[{"OBJECT_NAME":"OBJECT AS","OBJECT_ID":"2023-085AS","EPOCH":"2026-03-09T22:43:55.521696","MEAN_MOTION":15.33336233,"ECCENTRICITY":0.00083243,"INCLINATION":97.4812,"RA_OF_ASC_NODE":180.8852,"ARG_OF_PERICENTER":80.6036,"MEAN_ANOMALY":279.6147,"EPHEMERIS_TYPE":0,"CLASSIFICATION_TYPE":"U","NORAD_CAT_ID":57044,"ELEMENT_SET_NO":999,"REV_AT_EPOCH":15162,"BSTAR":0.00067677795,"MEAN_MOTION_DOT":0.00021782,"MEAN_MOTION_DDOT":0},{"OBJECT_NAME":"STARLINK-32859","OBJECT_ID":"2025-022H","EPOCH":"2026-03-09T13:06:26.272224","MEAN_MOTION":15.30190276,"ECCENTRICITY":0.0001194,"INCLINATION":53.1584,"RA_OF_ASC_NODE":130.5997,"ARG_OF_PERICENTER":101.9679,"MEAN_ANOMALY":258.1455,"EPHEMERIS_TYPE":0,"CLASSIFICATION_TYPE":"U","NORAD_CAT_ID":62861,"ELEMENT_SET_NO":999,"REV_AT_EPOCH":6187,"BSTAR":0.0007065,"MEAN_MOTION_DOT":0.00020617,"MEAN_MOTION_DDOT":0}]
